     2.10           G: GLONASS NAV DATA                     RINEX VERSION / TYPE
teqc  2015Jun23                         20220108 01:25:48UTCPGM / RUN BY / DATE
Linux 2.4.21-27.ELsmp|Opteron|gcc -static|Linux x86_64|=+   COMMENT
  2021    12    15    0.000000000000D+00                    CORR TO SYSTEM TIME
                                                            END OF HEADER
 8 21 12 16 22 45  0.0-6.255693733692D-05 0.000000000000D+00 8.100000000000D+04
    6.729156738281D+03-5.160818099976D-01 1.862645149231D-09 0.000000000000D+00
    2.249572900391D+04-1.275366783142D+00-1.862645149231D-09 6.000000000000D+00
    1.005260302734D+04 3.212362289429D+00 0.000000000000D+00 0.000000000000D+00
10 21 12 16 22 45  0.0-7.804296910763D-05-0.000000000000D+00 8.100000000000D+04
   -1.755714892578D+04-2.294907569885D+00-4.656612873077D-09 0.000000000000D+00
    7.800824707031D+03 7.561683654785D-02-9.313225746155D-10-7.000000000000D+00
   -1.674563818359D+04 2.449736595154D+00-9.313225746155D-10 0.000000000000D+00
21 21 12 16 22 45  0.0-2.627428621054D-04-2.728484105319D-12 8.100000000000D+04
   -1.460613232422D+04 4.245576858521D-01-2.793967723846D-09 0.000000000000D+00
    2.066114257812D+04-2.378215789795D-01-1.862645149231D-09 4.000000000000D+00
   -3.104418457031D+03-3.574661254883D+00-9.313225746155D-10 0.000000000000D+00
20 21 12 16 22 45  0.0-6.130710244179D-05-0.000000000000D+00 8.103000000000D+04
   -1.491149365234D+04 1.613358497620D+00-3.725290298462D-09 0.000000000000D+00
    6.649036621094D+03-2.157905578613D+00-0.000000000000D+00 2.000000000000D+00
   -1.959806298828D+04-1.954649925232D+00-0.000000000000D+00 0.000000000000D+00
22 21 12 16 23 15  0.0-1.519257202744D-04-1.818989403546D-12 8.280000000000D+04
   -7.416900878906D+03-1.922168731689D-01-9.313225746155D-10 0.000000000000D+00
    2.339303515625D+04 9.875011444092D-01-1.862645149231D-09-3.000000000000D+00
    7.124753906250D+03-3.430562973022D+00-9.313225746155D-10 0.000000000000D+00
 1 21 12 16 23 15  0.0 8.958671241999D-05 0.000000000000D+00 8.280000000000D+04
    1.518211914062D+04 6.138229370117D-02 1.862645149231D-09 0.000000000000D+00
    2.048304931641D+04-1.598911285400D-01-1.862645149231D-09 1.000000000000D+00
    6.533164062500D+02 3.561379432678D+00 9.313225746155D-10 0.000000000000D+00
21 21 12 16 23 15  0.0-2.627484500408D-04-2.728484105319D-12 8.280000000000D+04
   -1.352920312500D+04 7.291536331177D-01-3.725290298462D-09 0.000000000000D+00
    1.948435888672D+04-1.076455116272D+00-9.313225746155D-10 4.000000000000D+00
   -9.335249511719D+03-3.303434371948D+00-9.313225746155D-10 0.000000000000D+00
 8 21 12 16 23 15  0.0-6.255693733692D-05 0.000000000000D+00 8.280000000000D+04
    5.264168945312D+03-1.125182151794D+00 1.862645149231D-09 0.000000000000D+00
    1.971626953125D+04-1.770499229431D+00-1.862645149231D-09 6.000000000000D+00
    1.537348681641D+04 2.661602020264D+00-9.313225746155D-10 0.000000000000D+00
10 21 12 16 23 15  0.0-7.804390043020D-05-0.000000000000D+00 8.292000000000D+04
   -2.107426074219D+04-1.582267761230D+00-4.656612873077D-09 0.000000000000D+00
    8.186754882812D+03 3.196706771851D-01-0.000000000000D+00-7.000000000000D+00
   -1.174395800781D+04 3.071603775024D+00-1.862645149231D-09 0.000000000000D+00
23 21 12 16 23 15  0.0-2.354942262173D-05-9.094947017729D-13 8.388000000000D+04
    5.451386718750D+03-1.205000877380D+00 2.793967723846D-09 0.000000000000D+00
    1.160868603516D+04 2.774970054626D+00-9.313225746155D-10 3.000000000000D+00
    2.204832812500D+04-1.163060188293D+00-9.313225746155D-10 0.000000000000D+00
22 21 12 16 23 45  0.0-1.519294455647D-04-9.094947017729D-13 8.460000000000D+04
   -7.366153808594D+03 2.126970291138D-01-1.862645149231D-09 0.000000000000D+00
    2.446187988281D+04 1.764411926270D-01-9.313225746155D-10-3.000000000000D+00
    7.551264648438D+02-3.601082801819D+00-9.313225746155D-10 0.000000000000D+00
 1 21 12 16 23 45  0.0 8.958671241999D-05 0.000000000000D+00 8.460000000000D+04
    1.474396093750D+04-5.727396011353D-01 9.313225746155D-10 0.000000000000D+00
    1.961277148438D+04-7.743673324585D-01-2.793967723846D-09 1.000000000000D+00
    6.955649902344D+03 3.395710945129D+00 0.000000000000D+00 0.000000000000D+00
 8 21 12 16 23 45  0.0-6.255600601435D-05 0.000000000000D+00 8.460000000000D+04
    2.662194335938D+03-1.761159896851D+00 9.313225746155D-10 0.000000000000D+00
    1.628588134766D+04-1.993894577026D+00-1.862645149231D-09 6.000000000000D+00
    1.951149316406D+04 1.906562805176D+00-9.313225746155D-10 0.000000000000D+00
10 21 12 16 23 45  0.0-7.804576307535D-05-0.000000000000D+00 8.460000000000D+04
   -2.317374218750D+04-7.376680374146D-01-3.725290298462D-09 0.000000000000D+00
    8.815546386719D+03 3.383092880249D-01 0.000000000000D+00-7.000000000000D+00
   -5.830955566406D+03 3.455611228943D+00-1.862645149231D-09 0.000000000000D+00
21 21 12 16 23 45  0.0-2.627549692988D-04-2.728484105319D-12 8.460000000000D+04
   -1.214004492188D+04 7.705707550049D-01-3.725290298462D-09 0.000000000000D+00
    1.679778515625D+04-1.895280838013D+00-0.000000000000D+00 4.000000000000D+00
   -1.484284521484D+04-2.776315689087D+00-0.000000000000D+00 0.000000000000D+00
23 21 12 16 23 45  0.0-2.355128526688D-05-9.094947017729D-13 8.460000000000D+04
    3.780316406250D+03-6.524257659912D-01 9.313225746155D-10 0.000000000000D+00
    1.644340673828D+04 2.545505523682D+00-1.862645149231D-09 3.000000000000D+00
    1.912953320312D+04-2.058998107910D+00-9.313225746155D-10 0.000000000000D+00
